{
  "type": "FeatureCollection",
  "features": [
    {
      "type": "Feature",
      "properties": {
        "norad_id": 28051,
        "name": "IRS-P6 (RESOURCESAT-1)",
        "group": "resource",
        "lat": 57.725069869042535,
        "lon": -145.1518460711218,
        "alt_km": 755.284253681797,
        "timestamp": "2025-12-06T22:38:42.391343+00:00",
        "meta_object_name": "IRS-P6 (RESOURCESAT-1)",
        "meta_object_id": "2003-046A",
        "meta_epoch": "2025-12-06T15:54:25.298784",
        "meta_mean_motion": 14.36070668,
        "meta_eccentricity": 0.00638431,
        "meta_inclination": 98.2187,
        "meta_ra_of_asc_node": 21.3514,
        "meta_arg_of_pericenter": 198.966,
        "meta_mean_anomaly": 272.3966,
        "meta_ephemeris_type": 0,
        "meta_classification_type": "U",
        "meta_norad_cat_id": 28051,
        "meta_element_set_no": 999,
        "meta_rev_at_epoch": 15289,
        "meta_bstar": 0.00015442928,
        "meta_mean_motion_dot": 4.19e-06,
        "meta_mean_motion_ddot": 0,
        "tle_line1": "1 28051U 03046A   25340.66279281  .00000419  00000+0  15443-3 0  9997",
        "tle_line2": "2 28051  98.2187  21.3514 0063843 198.9660 272.3966 14.36070668152893"
      },
      "geometry": {
        "type": "Point",
        "coordinates": [
          -145.1518460711218,
          57.725069869042535
        ]
      }
    },
    {
      "type": "Feature",
      "properties": {
        "norad_id": 28220,
        "name": "SHIYAN-1 (SY-1)",
        "group": "resource",
        "lat": -58.76226068537603,
        "lon": -151.0839225886777,
        "alt_km": 490.46189389366464,
        "timestamp": "2025-12-06T22:38:42.391354+00:00",
        "meta_object_name": "SHIYAN-1 (SY-1)",
        "meta_object_id": "2004-012A",
        "meta_epoch": "2025-12-06T15:18:43.560288",
        "meta_mean_motion": 15.27909954,
        "meta_eccentricity": 0.00059927,
        "meta_inclination": 97.8943,
        "meta_ra_of_asc_node": 41.8176,
        "meta_arg_of_pericenter": 349.1109,
        "meta_mean_anomaly": 10.9999,
        "meta_ephemeris_type": 0,
        "meta_classification_type": "U",
        "meta_norad_cat_id": 28220,
        "meta_element_set_no": 999,
        "meta_rev_at_epoch": 18163,
        "meta_bstar": 0.00077364367,
        "meta_mean_motion_dot": 0.00021042,
        "meta_mean_motion_ddot": 0,
        "tle_line1": "1 28220U 04012A   25340.63800417  .00021042  00000+0  77364-3 0  9992",
        "tle_line2": "2 28220  97.8943  41.8176 0005992 349.1109  10.9999 15.27909954181632"
      },
      "geometry": {
        "type": "Point",
        "coordinates": [
          -151.0839225886777,
          -58.76226068537603
        ]
      }
    },
    {
      "type": "Feature",
      "properties": {
        "norad_id": 28376,
        "name": "AURA",
        "group": "resource",
        "lat": -50.02647811738389,
        "lon": 101.09278699138713,
        "alt_km": 697.6971814023973,
        "timestamp": "2025-12-06T22:38:42.391364+00:00",
        "meta_object_name": "AURA",
        "meta_object_id": "2004-026A",
        "meta_epoch": "2025-12-06T15:01:02.682336",
        "meta_mean_motion": 14.60924806,
        "meta_eccentricity": 0.00011701,
        "meta_inclination": 98.3178,
        "meta_ra_of_asc_node": 290.824,
        "meta_arg_of_pericenter": 93.0166,
        "meta_mean_anomaly": 267.1168,
        "meta_ephemeris_type": 0,
        "meta_classification_type": "U",
        "meta_norad_cat_id": 28376,
        "meta_element_set_no": 999,
        "meta_rev_at_epoch": 13809,
        "meta_bstar": 0.00046685473,
        "meta_mean_motion_dot": 2.238e-05,
        "meta_mean_motion_ddot": 0,
        "tle_line1": "1 28376U 04026A   25340.62572549  .00002238  00000+0  46685-3 0  9998",
        "tle_line2": "2 28376  98.3178 290.8240 0001170  93.0166 267.1168 14.60924806138095"
      },
      "geometry": {
        "type": "Point",
        "coordinates": [
          101.09278699138713,
          -50.02647811738389
        ]
      }
    },
    {
      "type": "Feature",
      "properties": {
        "norad_id": 28649,
        "name": "IRS-P5 (CARTOSAT-1)",
        "group": "resource",
        "lat": -10.353722479289953,
        "lon": -173.77426584405072,
        "alt_km": 601.9226506057757,
        "timestamp": "2025-12-06T22:38:42.391375+00:00",
        "meta_object_name": "IRS-P5 (CARTOSAT-1)",
        "meta_object_id": "2005-017A",
        "meta_epoch": "2025-12-06T15:20:54.865824",
        "meta_mean_motion": 14.90374661,
        "meta_eccentricity": 0.0001624,
        "meta_inclination": 97.5495,
        "meta_ra_of_asc_node": 7.3236,
        "meta_arg_of_pericenter": 50.8721,
        "meta_mean_anomaly": 309.2642,
        "meta_ephemeris_type": 0,
        "meta_classification_type": "U",
        "meta_norad_cat_id": 28649,
        "meta_element_set_no": 999,
        "meta_rev_at_epoch": 11513,
        "meta_bstar": 0.00035544159,
        "meta_mean_motion_dot": 3.407e-05,
        "meta_mean_motion_ddot": 0,
        "tle_line1": "1 28649U 05017A   25340.63952391  .00003407  00000+0  35544-3 0  9991",
        "tle_line2": "2 28649  97.5495   7.3236 0001624  50.8721 309.2642 14.90374661115135"
      },
      "geometry": {
        "type": "Point",
        "coordinates": [
          -173.77426584405072,
          -10.353722479289953
        ]
      }
    },
    {
      "type": "Feature",
      "properties": {
        "norad_id": 28893,
        "name": "SINAH 1",
        "group": "resource",
        "lat": 13.741451250675238,
        "lon": 107.4494806540209,
        "alt_km": 689.6124884502888,
        "timestamp": "2025-12-06T22:38:42.391386+00:00",
        "meta_object_name": "SINAH 1",
        "meta_object_id": "2005-043D",
        "meta_epoch": "2025-12-06T14:22:47.341920",
        "meta_mean_motion": 14.63951947,
        "meta_eccentricity": 0.00150005,
        "meta_inclination": 98.2601,
        "meta_ra_of_asc_node": 109.1401,
        "meta_arg_of_pericenter": 155.3397,
        "meta_mean_anomaly": 204.8525,
        "meta_ephemeris_type": 0,
        "meta_classification_type": "U",
        "meta_norad_cat_id": 28893,
        "meta_element_set_no": 999,
        "meta_rev_at_epoch": 7234,
        "meta_bstar": 0.00019891485,
        "meta_mean_motion_dot": 9.94e-06,
        "meta_mean_motion_ddot": 0,
        "tle_line1": "1 28893U 05043D   25340.59915905  .00000994  00000+0  19891-3 0  9991",
        "tle_line2": "2 28893  98.2601 109.1401 0015000 155.3397 204.8525 14.63951947 72344"
      },
      "geometry": {
        "type": "Point",
        "coordinates": [
          107.4494806540209,
          13.741451250675238
        ]
      }
    },
    {
      "type": "Feature",
      "properties": {
        "norad_id": 29079,
        "name": "EROS B",
        "group": "resource",
        "lat": 34.18251675411185,
        "lon": 92.22278638641286,
        "alt_km": 369.1001840753288,
        "timestamp": "2025-12-06T22:38:42.391397+00:00",
        "meta_object_name": "EROS B",
        "meta_object_id": "2006-014A",
        "meta_epoch": "2025-12-06T11:45:46.178784",
        "meta_mean_motion": 15.65875028,
        "meta_eccentricity": 0.00017523,
        "meta_inclination": 97.3487,
        "meta_ra_of_asc_node": 96.7779,
        "meta_arg_of_pericenter": 254.7914,
        "meta_mean_anomaly": 105.3153,
        "meta_ephemeris_type": 0,
        "meta_classification_type": "U",
        "meta_norad_cat_id": 29079,
        "meta_element_set_no": 999,
        "meta_rev_at_epoch": 8982,
        "meta_bstar": 0.0018805362,
        "meta_mean_motion_dot": 0.00194995,
        "meta_mean_motion_ddot": 0,
        "tle_line1": "1 29079U 06014A   25340.49011781  .00194995  00000+0  18805-2 0  9993",
        "tle_line2": "2 29079  97.3487  96.7779 0001752 254.7914 105.3153 15.65875028 89821"
      },
      "geometry": {
        "type": "Point",
        "coordinates": [
          92.22278638641286,
          34.18251675411185
        ]
      }
    },
    {
      "type": "Feature",
      "properties": {
        "norad_id": 29228,
        "name": "RESURS-DK 1",
        "group": "resource",
        "lat": 2.870713984528129,
        "lon": 117.86690996420496,
        "alt_km": 532.7878693723087,
        "timestamp": "2025-12-06T22:38:42.391407+00:00",
        "meta_object_name": "RESURS-DK 1",
        "meta_object_id": "2006-021A",
        "meta_epoch": "2025-12-06T09:55:49.837728",
        "meta_mean_motion": 15.12107015,
        "meta_eccentricity": 0.00077614,
        "meta_inclination": 69.934,
        "meta_ra_of_asc_node": 118.1849,
        "meta_arg_of_pericenter": 263.4376,
        "meta_mean_anomaly": 96.5906,
        "meta_ephemeris_type": 0,
        "meta_classification_type": "U",
        "meta_norad_cat_id": 29228,
        "meta_element_set_no": 999,
        "meta_rev_at_epoch": 7342,
        "meta_bstar": 0.00031037999,
        "meta_mean_motion_dot": 5.256e-05,
        "meta_mean_motion_ddot": 0,
        "tle_line1": "1 29228U 06021A   25340.41377127  .00005256  00000+0  31038-3 0  9993",
        "tle_line2": "2 29228  69.9340 118.1849 0007761 263.4376  96.5906 15.12107015 73424"
      },
      "geometry": {
        "type": "Point",
        "coordinates": [
          117.86690996420496,
          2.870713984528129
        ]
      }
    }
  ]
}